[Satellite]
VERSION=1.1
NAME=STARLINK-1169
NICKNAME=STARLINK-1169
TLE1=1 45061U 20006T   20058.82797144 -.00302903  00000-0 -75109-2 0  9994
TLE2=2 45061  53.0001  92.7093 0001757  87.4553 272.6651 15.41011310  4593
STATUS=0
